*******************************************************************************
Ephemeris / WWW_USER Fri Mar  7 10:47:54 2025 Pasadena, USA      / Horizons    
*******************************************************************************
Target body name: (2018 TS1)                      {source: JPL#6}
Center body name: Earth (399)                     {source: DE441}
Center-site name: Mauna Kea
*******************************************************************************
Start time      : A.D. 2018-Nov-28 03:51:00.0000 UT      
Stop  time      : A.D. 2018-Nov-28 16:28:00.0000 UT      
Step-size       : 1 minutes
*******************************************************************************
Target pole/equ : undefined
Target radii    : undefined                                                    
Center geodetic : 204.5278, 19.8260847, 4.21024   {E-lon(deg),Lat(deg),Alt(km)}
Center cylindric: 204.5278, 6006.35451, 2151.0229 {E-lon(deg),Dxy(km),Dz(km)}
Center pole/equ : ITRF93                          {East-longitude positive}
Center radii    : 6378.137, 6378.137, 6356.752 km {Equator_a, b, pole_c}       
Target primary  : Sun
Vis. interferer : MOON (R_eq= 1737.400) km        {source: DE441}
Rel. light bend : Sun                             {source: DE441}
Rel. lght bnd GM: 1.3271E+11 km^3/s^2                                          
Small-body perts: Yes                             {source: SB441-N16}
Atmos refraction: NO (AIRLESS)
RA format       : HMS
Time format     : CAL 
Calendar mode   : Mixed Julian/Gregorian
RTS-only print  : NO       
EOP file        : eop.250306.p250602                                           
EOP coverage    : DATA-BASED 1962-JAN-20 TO 2025-MAR-06. PREDICTS-> 2025-JUN-01
Units conversion: 1 au= 149597870.700 km, c= 299792.458 km/s, 1 day= 86400.0 s 
Table cut-offs 1: Elevation (-90.0deg=NO ),Airmass (>38.000=NO), Daylight (YES)
Table cut-offs 2: Solar elongation (  0.0,180.0=NO ),Local Hour Angle( 0.0=NO )
Table cut-offs 3: RA/DEC angular rate (     0.0=NO )                           
*******************************************************************************
Initial IAU76/J2000 heliocentric ecliptic osculating elements (au, days, deg.):
  EPOCH=  2458397.5 ! 2018-Oct-06.00 (TDB)         Residual RMS= .30565        
   EC= .4232280089037878   QR= .7951431742456924   TP= 2458457.9340165281      
   OM= 356.454891650426    W=  97.01949783285009   IN= 2.243887958983723       
  Equivalent ICRF heliocentric cartesian coordinates (au, au/d):
   X= 1.037748414669454E+00  Y= 2.036665248544260E-01  Z= 1.007134111375925E-01
  VX=-1.028941390482545E-02 VY= 1.387292408111162E-02 VZ= 6.642652492995660E-03
Asteroid physical parameters (km, seconds, rotational period in hours):        
   GM= n.a.                RAD= n.a.               ROTPER= n.a.                
   H= 25.7                 G= .150                 B-V= n.a.                   
                           ALBEDO= n.a.            STYP= n.a.                  
*******************************************************************************
 Date__(UT)__HR:MN     R.A._________(ICRF)_________DEC
******************************************************
$$SOE
 2018-Nov-28 14:06  m  13 24 35.263323 -02 50 41.89272
 2018-Nov-28 14:07  m  13 24 35.320566 -02 50 42.64626
 2018-Nov-28 14:08  m  13 24 35.377778 -02 50 43.39980
 2018-Nov-28 14:09  m  13 24 35.434958 -02 50 44.15334
 2018-Nov-28 14:10  m  13 24 35.492107 -02 50 44.90687
 2018-Nov-28 14:11  m  13 24 35.549224 -02 50 45.66039
 2018-Nov-28 14:12  m  13 24 35.606311 -02 50 46.41391
 2018-Nov-28 14:13  m  13 24 35.663366 -02 50 47.16743
 2018-Nov-28 14:14  m  13 24 35.720390 -02 50 47.92094
 2018-Nov-28 14:15  m  13 24 35.777383 -02 50 48.67444
 2018-Nov-28 14:16  m  13 24 35.834345 -02 50 49.42794
 2018-Nov-28 14:17  m  13 24 35.891276 -02 50 50.18144
 2018-Nov-28 14:18  m  13 24 35.948176 -02 50 50.93493
 2018-Nov-28 14:19  m  13 24 36.005045 -02 50 51.68841
 2018-Nov-28 14:20  m  13 24 36.061883 -02 50 52.44189
 2018-Nov-28 14:21  m  13 24 36.118690 -02 50 53.19536
 2018-Nov-28 14:22  m  13 24 36.175466 -02 50 53.94882
 2018-Nov-28 14:23  m  13 24 36.232212 -02 50 54.70228
 2018-Nov-28 14:24  m  13 24 36.288926 -02 50 55.45573
 2018-Nov-28 14:25  m  13 24 36.345610 -02 50 56.20918
 2018-Nov-28 14:26  m  13 24 36.402264 -02 50 56.96262
 2018-Nov-28 14:27  m  13 24 36.458886 -02 50 57.71605
 2018-Nov-28 14:28  m  13 24 36.515479 -02 50 58.46948
 2018-Nov-28 14:29  m  13 24 36.572040 -02 50 59.22290
 2018-Nov-28 14:30  m  13 24 36.628571 -02 50 59.97631
 2018-Nov-28 14:31  m  13 24 36.685072 -02 51 00.72972
 2018-Nov-28 14:32  m  13 24 36.741542 -02 51 01.48312
 2018-Nov-28 14:33  m  13 24 36.797982 -02 51 02.23651
 2018-Nov-28 14:34  m  13 24 36.854392 -02 51 02.98989
 2018-Nov-28 14:35  m  13 24 36.910772 -02 51 03.74327
 2018-Nov-28 14:36  m  13 24 36.967121 -02 51 04.49664
 2018-Nov-28 14:37  m  13 24 37.023440 -02 51 05.25000
 2018-Nov-28 14:38  m  13 24 37.079729 -02 51 06.00335
 2018-Nov-28 14:39  m  13 24 37.135988 -02 51 06.75670
 2018-Nov-28 14:40  m  13 24 37.192217 -02 51 07.51003
 2018-Nov-28 14:41  m  13 24 37.248416 -02 51 08.26336
 2018-Nov-28 14:42  m  13 24 37.304585 -02 51 09.01668
 2018-Nov-28 14:43  m  13 24 37.360725 -02 51 09.77000
 2018-Nov-28 14:44  m  13 24 37.416834 -02 51 10.52330
 2018-Nov-28 14:45  m  13 24 37.472914 -02 51 11.27660
 2018-Nov-28 14:46  m  13 24 37.528965 -02 51 12.02988
 2018-Nov-28 14:47  m  13 24 37.584985 -02 51 12.78316
 2018-Nov-28 14:48  m  13 24 37.640976 -02 51 13.53643
 2018-Nov-28 14:49  m  13 24 37.696938 -02 51 14.28969
 2018-Nov-28 14:50  m  13 24 37.752870 -02 51 15.04294
 2018-Nov-28 14:51  m  13 24 37.808773 -02 51 15.79619
 2018-Nov-28 14:52  m  13 24 37.864647 -02 51 16.54942
 2018-Nov-28 14:53  m  13 24 37.920491 -02 51 17.30264
 2018-Nov-28 14:54  m  13 24 37.976306 -02 51 18.05586
 2018-Nov-28 14:55  m  13 24 38.032092 -02 51 18.80906
 2018-Nov-28 14:56  m  13 24 38.087849 -02 51 19.56226
 2018-Nov-28 14:57  m  13 24 38.143577 -02 51 20.31544
 2018-Nov-28 14:58  m  13 24 38.199276 -02 51 21.06862
 2018-Nov-28 14:59  m  13 24 38.254946 -02 51 21.82178
 2018-Nov-28 15:00  m  13 24 38.310587 -02 51 22.57494
 2018-Nov-28 15:01  m  13 24 38.366200 -02 51 23.32808
 2018-Nov-28 15:02  m  13 24 38.421784 -02 51 24.08122
 2018-Nov-28 15:03  m  13 24 38.477339 -02 51 24.83434
 2018-Nov-28 15:04  m  13 24 38.532866 -02 51 25.58745
 2018-Nov-28 15:05  m  13 24 38.588364 -02 51 26.34056
 2018-Nov-28 15:06  m  13 24 38.643834 -02 51 27.09365
 2018-Nov-28 15:07  m  13 24 38.699275 -02 51 27.84673
 2018-Nov-28 15:08  m  13 24 38.754688 -02 51 28.59980
 2018-Nov-28 15:09  m  13 24 38.810073 -02 51 29.35286
 2018-Nov-28 15:10  m  13 24 38.865430 -02 51 30.10591
 2018-Nov-28 15:11  m  13 24 38.920759 -02 51 30.85894
 2018-Nov-28 15:12  m  13 24 38.976060 -02 51 31.61197
 2018-Nov-28 15:13  m  13 24 39.031333 -02 51 32.36498
 2018-Nov-28 15:14  m  13 24 39.086578 -02 51 33.11799
 2018-Nov-28 15:15  m  13 24 39.141795 -02 51 33.87098
 2018-Nov-28 15:16  m  13 24 39.196985 -02 51 34.62396
 2018-Nov-28 15:17  m  13 24 39.252147 -02 51 35.37692
 2018-Nov-28 15:18  m  13 24 39.307281 -02 51 36.12988
 2018-Nov-28 15:19  m  13 24 39.362388 -02 51 36.88282
 2018-Nov-28 15:20  m  13 24 39.417467 -02 51 37.63575
 2018-Nov-28 15:21 Am  13 24 39.472520 -02 51 38.38867
 2018-Nov-28 15:22 Am  13 24 39.527544 -02 51 39.14158
 2018-Nov-28 15:23 Am  13 24 39.582542 -02 51 39.89447
 2018-Nov-28 15:24 Am  13 24 39.637513 -02 51 40.64735
 2018-Nov-28 15:25 Am  13 24 39.692456 -02 51 41.40022
 2018-Nov-28 15:26 Am  13 24 39.747373 -02 51 42.15308
 2018-Nov-28 15:27 Am  13 24 39.802263 -02 51 42.90592
 2018-Nov-28 15:28 Am  13 24 39.857126 -02 51 43.65875
 2018-Nov-28 15:29 Am  13 24 39.911962 -02 51 44.41157
 2018-Nov-28 15:30 Am  13 24 39.966772 -02 51 45.16437
 2018-Nov-28 15:31 Am  13 24 40.021555 -02 51 45.91716
 2018-Nov-28 15:32 Am  13 24 40.076312 -02 51 46.66994
 2018-Nov-28 15:33 Am  13 24 40.131042 -02 51 47.42271
 2018-Nov-28 15:34 Am  13 24 40.185746 -02 51 48.17546
 2018-Nov-28 15:35 Am  13 24 40.240424 -02 51 48.92819
 2018-Nov-28 15:36 Am  13 24 40.295076 -02 51 49.68092
 2018-Nov-28 15:37 Am  13 24 40.349702 -02 51 50.43363
 2018-Nov-28 15:38 Am  13 24 40.404301 -02 51 51.18632
 2018-Nov-28 15:39 Am  13 24 40.458875 -02 51 51.93900
 2018-Nov-28 15:40 Am  13 24 40.513423 -02 51 52.69167
 2018-Nov-28 15:41 Am  13 24 40.567946 -02 51 53.44432
 2018-Nov-28 15:42 Am  13 24 40.622443 -02 51 54.19696
 2018-Nov-28 15:43 Am  13 24 40.676914 -02 51 54.94959
 2018-Nov-28 15:44 Am  13 24 40.731360 -02 51 55.70220
 2018-Nov-28 15:45 Am  13 24 40.785780 -02 51 56.45479
 2018-Nov-28 15:46 Am  13 24 40.840176 -02 51 57.20737
 2018-Nov-28 15:47 Am  13 24 40.894546 -02 51 57.95994
 2018-Nov-28 15:48 Nm  13 24 40.948891 -02 51 58.71249
 2018-Nov-28 15:49 Nm  13 24 41.003211 -02 51 59.46503
 2018-Nov-28 15:50 Nm  13 24 41.057506 -02 52 00.21755
 2018-Nov-28 15:51 Nm  13 24 41.111776 -02 52 00.97006
 2018-Nov-28 15:52 Nm  13 24 41.166022 -02 52 01.72255
 2018-Nov-28 15:53 Nm  13 24 41.220243 -02 52 02.47502
 2018-Nov-28 15:54 Nm  13 24 41.274440 -02 52 03.22748
 2018-Nov-28 15:55 Nm  13 24 41.328612 -02 52 03.97993
 2018-Nov-28 15:56 Nm  13 24 41.382760 -02 52 04.73236
 2018-Nov-28 15:57 Nm  13 24 41.436883 -02 52 05.48477
 2018-Nov-28 15:58 Nm  13 24 41.490983 -02 52 06.23717
 2018-Nov-28 15:59 Nm  13 24 41.545058 -02 52 06.98955
 2018-Nov-28 16:00 Nm  13 24 41.599109 -02 52 07.74192
 2018-Nov-28 16:01 Nm  13 24 41.653137 -02 52 08.49427
 2018-Nov-28 16:02 Nm  13 24 41.707141 -02 52 09.24660
 2018-Nov-28 16:03 Nm  13 24 41.761121 -02 52 09.99892
 2018-Nov-28 16:04 Nm  13 24 41.815077 -02 52 10.75122
 2018-Nov-28 16:05 Nm  13 24 41.869011 -02 52 11.50351
 2018-Nov-28 16:06 Nm  13 24 41.922920 -02 52 12.25578
 2018-Nov-28 16:07 Nm  13 24 41.976807 -02 52 13.00803
 2018-Nov-28 16:08 Nm  13 24 42.030670 -02 52 13.76026
